INTELSAT 21 (IS-21)     
1 38749U 12045A   26164.89298209 -.00000275  00000+0  00000+0 0  9992
2 38749   0.0152 317.2891 0001260 141.4696  66.9202  1.00271293 50490
INTELSAT 23 (IS-23)     
1 38867U 12057A   26164.89402209 -.00000275  00000+0  00000+0 0  9993
2 38867   0.0138 344.5671 0000360  86.8250  99.6486  1.00274975 49925
FM-6                    
1 39360U 13058A   26164.66759005  .00000000  00000+0  00000+0 0  9993
2 39360   0.0302  40.0804 0001556 125.3602 220.5258  1.00266318 46034
INTELSAT 30 (IS-30)     
1 40271U 14062A   26164.88570206 -.00000141  00000+0  00000+0 0  9997
2 40271   0.0273  49.5524 0001324 327.6124 108.8301  1.00270938  6762
DIRECTV 14              
1 40333U 14078B   26164.88483539 -.00000115  00000+0  00000+0 0  9996
2 40333   0.0104   9.5129 0000362 262.4259 209.5540  1.00269987 42011
DIRECTV 15              
1 40663U 15026A   26164.67027672 -.00000092  00000+0  00000+0 0  9999
2 40663   0.0162  23.0450 0000213 244.7916 132.5735  1.00271089 40427
SKY MEXICO-1            
1 40664U 15026B   26164.88890874 -.00000224  00000+0  00000+0 0  9992
2 40664   0.0015 359.3430 0001945 105.0709  38.9955  1.00270972 40423
INTELSAT 34 (IS-34)     
1 40874U 15039A   26164.82225804 -.00000275  00000+0  00000+0 0  9994
2 40874   0.0106 347.1785 0000510 343.3327 172.1492  1.00271005 39608
INTELSAT 31 (IS-31)     
1 41581U 16035A   26164.88570206 -.00000141  00000+0  00000+0 0  9994
2 41581   0.0175 271.9721 0001164 335.7654 238.2635  1.00270960 36652
INTELSAT 36 (IS-36)     
1 41747U 16053A   26164.83685622 -.00000014  00000+0  00000+0 0  9991
2 41747   0.0113 357.4330 0001917 330.6184 303.8577  1.00271214 35928
INTELSAT 32E (IS-32E)   
1 41945U 17007B   26164.75334862 -.00000258  00000+0  00000+0 0  9999
2 41945   0.0007 354.3537 0000892 319.2360 176.5049  1.00271604 34195
INTELSAT 35E (IS-35E)   
1 42818U 17041A   26164.89767369  .00000000  00000+0  00000+0 0  9998
2 42818   0.0258   4.4688 0001530  75.8644 110.5459  1.00268514 32785
INTELSAT 37E (IS-37E)   
1 42950U 17059A   26164.90095365 -.00000131  00000+0  00000+0 0  9992
2 42950   0.0188  58.7697 0002345  42.1678 107.6276  1.00272638 32039
AZERSPACE 2 (IS-38)     
1 43632U 18074A   26164.88888679  .00000146  00000+0  00000+0 0  9998
2 43632   0.0111   7.5192 0001265  90.2404 169.5525  1.00271406 28419
HORIZONS-3E             
1 43633U 18074B   26164.79535486 -.00000020  00000+0  00000+0 0  9996
2 43633   0.0185 161.8508 0000895 113.8020  81.7793  1.00272721 28301
AT&T T-16               
1 44333U 19034A   26164.88448873 -.00000105  00000+0  00000+0 0  9998
2 44333   0.0190  56.6301 0000886 237.6114 185.5149  1.00269989 25606
INTELSAT 39 (IS-39)     
1 44476U 19049B   26164.48900116  .00000045  00000+0  00000+0 0  9993
2 44476   0.0017 349.3933 0000876 319.9486 190.4512  1.00270508 25091
GALAXY 30 (G-30)        
1 46114U 20056C   26164.73714189  .00000048  00000+0  00000+0 0  9998
2 46114   0.0186  10.8339 0002051  78.7779 312.8076  1.00270247 21250
GALAXY 33 (G-33)        
1 54026U 22128A   26164.66429670  .00000090  00000+0  00000+0 0  9998
2 54026   0.0110 330.8193 0001604 115.0716 282.2380  1.00270786 13707
GALAXY 34 (G-34)        
1 54027U 22128B   26164.73636187  .00000069  00000+0  00000+0 0  9996
2 54027   0.0115  29.5169 0001530  67.3543 301.2703  1.00275311 13871
GALAXY 31 (G-31)        
1 54243U 22153A   26164.88041537  .00000000  00000+0  00000+0 0  9994
2 54243   0.0187   7.4821 0000966  67.3849  23.2604  1.00270148  7104
GALAXY 32 (G-32)        
1 54244U 22153B   26164.60112796 -.00000163  00000+0  00000+0 0  9992
2 54244   0.0146  26.6441 0001981   6.1350 354.5447  1.00271032 13102
GALAXY 35 (G-35)        
1 54741U 22170A   26164.88604873  .00000000  00000+0  00000+0 0  9994
2 54741   0.0201 353.3216 0001757  92.7225  42.0206  1.00269413 12863
GALAXY 36 (G-36)        
1 54742U 22170B   26164.88691541 -.00000175  00000+0  00000+0 0  9997
2 54742   0.0415 125.7359 0002471 317.6993  49.0566  1.00271153 12742
GALAXY 37 (G-37)        
1 57493U 23112A   26164.66551003  .00000059  00000+0  00000+0 0  9994
2 57493   0.0172  46.7643 0001727  32.9015 294.8937  1.00270884 10505
