OBJECT_NAME,OBJECT_ID,EPOCH,MEAN_MOTION,ECCENTRICITY,INCLINATION,RA_OF_ASC_NODE,ARG_OF_PERICENTER,MEAN_ANOMALY,EPHEMERIS_TYPE,CLASSIFICATION_TYPE,NORAD_CAT_ID,ELEMENT_SET_NO,REV_AT_EPOCH,BSTAR,MEAN_MOTION_DOT,MEAN_MOTION_DDOT
INTELSAT 21 (IS-21),2012-045A,2026-06-13T21:25:53.652576,1.00271293,.00012602,0.0152,317.2891,141.4696,66.9202,0,U,38749,999,5049,0,-.275E-5,0
INTELSAT 23 (IS-23),2012-057A,2026-06-13T21:27:23.508576,1.00274975,.00003603,0.0138,344.5671,86.8250,99.6486,0,U,38867,999,4992,0,-.275E-5,0
FM-6,2013-058A,2026-06-13T16:01:19.780320,1.00266318,.00015567,0.0302,40.0804,125.3602,220.5258,0,U,39360,999,4603,0,0,0
INTELSAT 30 (IS-30),2014-062A,2026-06-13T21:15:24.657984,1.00270938,.00013242,0.0273,49.5524,327.6124,108.8301,0,U,40271,999,676,0,-.141E-5,0
DIRECTV 14,2014-078B,2026-06-13T21:14:09.777696,1.00269987,.00003624,0.0104,9.5129,262.4259,209.5540,0,U,40333,999,4201,0,-.115E-5,0
DIRECTV 15,2015-026A,2026-06-13T16:05:11.908608,1.00271089,.00002133,0.0162,23.0450,244.7916,132.5735,0,U,40663,999,4042,0,-.92E-6,0
SKY MEXICO-1,2015-026B,2026-06-13T21:20:01.715136,1.00270972,.00019451,0.0015,359.3430,105.0709,38.9955,0,U,40664,999,4042,0,-.224E-5,0
INTELSAT 34 (IS-34),2015-039A,2026-06-13T19:44:03.094656,1.00271005,.00005103,0.0106,347.1785,343.3327,172.1492,0,U,40874,999,3960,0,-.275E-5,0
INTELSAT 31 (IS-31),2016-035A,2026-06-13T21:15:24.657984,1.00270960,.00011646,0.0175,271.9721,335.7654,238.2635,0,U,41581,999,3665,0,-.141E-5,0
INTELSAT 36 (IS-36),2016-053A,2026-06-13T20:05:04.377408,1.00271214,.00019171,0.0113,357.4330,330.6184,303.8577,0,U,41747,999,3592,0,-.14E-6,0
INTELSAT 32E (IS-32E),2017-007B,2026-06-13T18:04:49.320768,1.00271604,.00008921,0.0007,354.3537,319.2360,176.5049,0,U,41945,999,3419,0,-.258E-5,0
INTELSAT 35E (IS-35E),2017-041A,2026-06-13T21:32:39.006816,1.00268514,.00015303,0.0258,4.4688,75.8644,110.5459,0,U,42818,999,3278,0,0,0
INTELSAT 37E (IS-37E),2017-059A,2026-06-13T21:37:22.395360,1.00272638,.00023454,0.0188,58.7697,42.1678,107.6276,0,U,42950,999,3203,0,-.131E-5,0
AZERSPACE 2 (IS-38),2018-074A,2026-06-13T21:19:59.818656,1.00271406,.00012659,0.0111,7.5192,90.2404,169.5525,0,U,43632,999,2841,0,.146E-5,0
HORIZONS-3E,2018-074B,2026-06-13T19:05:18.659904,1.00272721,.00008959,0.0185,161.8508,113.8020,81.7793,0,U,43633,999,2830,0,-.2E-6,0
AT&T T-16,2019-034A,2026-06-13T21:13:39.826272,1.00269989,.00008866,0.0190,56.6301,237.6114,185.5149,0,U,44333,999,2560,0,-.105E-5,0
INTELSAT 39 (IS-39),2019-049B,2026-06-13T11:44:09.700224,1.00270508,.00008762,0.0017,349.3933,319.9486,190.4512,0,U,44476,999,2509,0,.45E-6,0
GALAXY 30 (G-30),2020-056C,2026-06-13T17:41:29.059296,1.00270247,.00020513,0.0186,10.8339,78.7779,312.8076,0,U,46114,999,2125,0,.48E-6,0
GALAXY 33 (G-33),2022-128A,2026-06-13T15:56:35.234880,1.00270786,.00016046,0.0110,330.8193,115.0716,282.2380,0,U,54026,999,1370,0,.9E-6,0
GALAXY 34 (G-34),2022-128B,2026-06-13T17:40:21.665568,1.00275311,.00015307,0.0115,29.5169,67.3543,301.2703,0,U,54027,999,1387,0,.69E-6,0
GALAXY 31 (G-31),2022-153A,2026-06-13T21:07:47.887968,1.00270148,.00009667,0.0187,7.4821,67.3849,23.2604,0,U,54243,999,710,0,0,0
GALAXY 32 (G-32),2022-153B,2026-06-13T14:25:37.455744,1.00271032,.0001981,0.0146,26.6441,6.1350,354.5447,0,U,54244,999,1310,0,-.163E-5,0
GALAXY 35 (G-35),2022-170A,2026-06-13T21:15:54.610272,1.00269413,.00017579,0.0201,353.3216,92.7225,42.0206,0,U,54741,999,1286,0,0,0
GALAXY 36 (G-36),2022-170B,2026-06-13T21:17:09.491424,1.00271153,.00024711,0.0415,125.7359,317.6993,49.0566,0,U,54742,999,1274,0,-.175E-5,0
GALAXY 37 (G-37),2023-112A,2026-06-13T15:58:20.066592,1.00270884,.00017271,0.0172,46.7643,32.9015,294.8937,0,U,57493,999,1050,0,.59E-6,0
